H1 CPF  1  DLR 2021 04 12 10  6022 technosat            
H2  1704205 6203    42829 2021 04 12 00 00 00 2021 04 19 00 00 00    60 1 1  0 0 0
H9
10 0 59321   7200.000000  0       1790347.997      -4169486.866       5296041.753
10 0 59321   7260.000000  0       1816837.230      -4514784.569       4996764.684
10 0 59321   7320.000000  0       1832758.596      -4841310.390       4676354.043
10 0 59321   7380.000000  0       1838215.730      -5147601.131       4336164.903
10 0 59321   7440.000000  0       1833368.671      -5432279.760       3977636.018
10 0 59321   7500.000000  0       1818432.416      -5694061.747       3602283.735
10 0 59321   7560.000000  0       1793675.186      -5931760.990       3211695.599
10 0 59321   7620.000000  0       1759416.419      -6144295.325       2807523.675
10 0 59321   7680.000000  0       1716024.551      -6330691.605       2391477.570
10 0 59321   7740.000000  0       1663914.545      -6490090.314       1965317.210
10 0 59321   7800.000000  0       1603545.146      -6621749.723       1530845.366
10 0 59321   7860.000000  0       1535415.900      -6725049.496       1089899.895
10 0 59321   7920.000000  0       1460063.983      -6799493.641        644345.869
10 0 59321   7980.000000  0       1378060.840      -6844713.059        196067.612
10 0 59321   8040.000000  0       1290008.574      -6860467.487       -253039.541
10 0 59321   8100.000000  0       1196536.208      -6846646.649       -701077.521
10 0 59321   8160.000000  0       1098295.864      -6803270.751      -1146153.728
10 0 59321   8220.000000  0        995958.801      -6730490.385      -1586389.109
10 0 59321   8280.000000  0        890211.377      -6628585.858      -2019926.179
10 0 59321   8340.000000  0        781751.019      -6497965.913      -2444936.923
10 0 59321   8400.000000  0        671282.168      -6339165.888      -2859630.544
10 0 59321   8460.000000  0        559512.211      -6152845.302      -3262261.021
10 0 59321   8520.000000  0        447147.416      -5939784.861      -3651134.462
10 0 59321   8580.000000  0        334888.896      -5700882.891      -4024616.176
10 0 59321   8640.000000  0        223428.641      -5437151.240      -4381137.422
10 0 59321   8700.000000  0        113445.645      -5149710.721      -4719201.807
10 0 59321   8760.000000  0          5602.157      -4839786.134      -5037391.358
10 0 59321   8820.000000  0        -99459.955      -4508700.848      -5334372.273
10 0 59321   8880.000000  0       -201122.695      -4157870.949      -5608900.281
10 0 59321   8940.000000  0       -298795.251      -3788799.020      -5859825.577
10 0 59321   9000.000000  0       -391917.131      -3403067.609      -6086097.359
10 0 59321   9060.000000  0       -479961.106      -3002332.384      -6286767.963
10 0 59321   9120.000000  0       -562435.964      -2588315.004      -6460996.568
10 0 59321   9180.000000  0       -638889.042      -2162795.746      -6608052.451
10 0 59321   9240.000000  0       -708908.523      -1727605.949      -6727317.816
10 0 59321   9300.000000  0       -772125.530      -1284620.284      -6818290.232
10 0 59321   9360.000000  0       -828215.959       -835748.802      -6880584.660
10 0 59321   9420.000000  0       -876902.047       -382928.830      -6913934.981
10 0 59321   9480.000000  0       -917953.711         71883.200      -6918195.028
10 0 59321   9540.000000  0       -951189.620        526719.923      -6893339.235
10 0 59321   9600.000000  0       -976478.017        979611.352      -6839462.936
10 0 59321   9660.000000  0       -993737.266       1428593.279      -6756782.105
10 0 59321   9720.000000  0      -1002936.150       1871715.564      -6645632.642
10 0 59321   9780.000000  0      -1004093.892       2307050.447      -6506469.327
10 0 59321   9840.000000  0       -997279.872       2732700.874      -6339864.305
10 0 59321   9900.000000  0       -982613.126       3146808.789      -6146505.090
10 0 59321   9960.000000  0       -960261.566       3547563.299      -5927192.037
10 0 59321  10020.000000  0       -930440.887       3933208.635      -5682835.381
10 0 59321  10080.000000  0       -893413.231       4302051.991      -5414451.875
10 0 59321  10140.000000  0       -849485.614       4652471.195      -5123160.940
10 0 59321  10200.000000  0       -799008.087       4982922.146      -4810180.319
10 0 59321  10260.000000  0       -742371.645       5291945.951      -4476821.278
10 0 59321  10320.000000  0       -680005.896       5578175.736      -4124483.350
10 0 59321  10380.000000  0       -612376.483       5840343.078      -3754648.656
10 0 59321  10440.000000  0       -539982.296       6077284.027      -3368875.837
10 0 59321  10500.000000  0       -463352.464       6287944.726      -2968793.633
10 0 59321  10560.000000  0       -383043.157       6471386.589      -2556094.029
10 0 59321  10620.000000  0       -299634.223       6626790.916      -2132525.058
10 0 59321  10680.000000  0       -213725.679       6753462.979      -1699883.311
10 0 59321  10740.000000  0       -125934.051       6850835.538      -1260006.173
10 0 59321  10800.000000  0        -36888.573       6918471.730       -814763.798
10 0 59321  10860.000000  0         52772.679       6956067.341       -366050.916
10 0 59321  10920.000000  0        142406.736       6963452.439         84221.537
10 0 59321  10980.000000  0        231369.723       6940592.339        534134.918
10 0 59321  11040.000000  0        319020.866       6887587.848        981771.435
10 0 59321  11100.000000  0        404726.456       6804674.835       1425222.702
10 0 59321  11160.000000  0        487863.747       6692223.083       1862598.250
10 0 59321  11220.000000  0        567824.804       6550734.450       2292033.899
10 0 59321  11280.000000  0        644020.237       6380840.451       2711699.907
10 0 59321  11340.000000  0        715882.827       6183299.343       3119809.078
10 0 59321  11400.000000  0        782871.058       5958992.334       3514624.715
10 0 59321  11460.000000  0        844472.565       5708919.318       3894467.935
10 0 59321  11520.000000  0        900207.405       5434194.430       4257725.130
10 0 59321  11580.000000  0        949630.989       5136040.477       4602855.316
10 0 59321  11640.000000  0        992336.732       4815782.669       4928396.490
10 0 59321  11700.000000  0       1027958.615       4474842.465       5232971.539
10 0 59321  11760.000000  0       1056173.592       4114730.929       5515293.982
10 0 59321  11820.000000  0       1076703.679       3737041.732       5774173.237
10 0 59321  11880.000000  0       1089317.727       3343443.777       6008519.532
10 0 59321  11940.000000  0       1093832.942       2935673.503       6217348.277
10 0 59321  12000.000000  0       1090116.131       2515526.986       6399783.955
10 0 59321  12060.000000  0       1078084.690       2084851.833       6555063.575
10 0 59321  12120.000000  0       1057707.299       1645538.852       6682539.633
10 0 59321  12180.000000  0       1029004.343       1199513.589       6781682.504
10 0 59321  12240.000000  0        992048.042        748727.851       6852082.358
10 0 59321  12300.000000  0        946962.307        295151.207       6893450.625
10 0 59321  12360.000000  0        893922.309       -159237.570       6905621.088
10 0 59321  12420.000000  0        833153.749       -612459.184       6888550.480
10 0 59321  12480.000000  0        764931.868      -1062542.452       6842318.483
10 0 59321  12540.000000  0        689580.175      -1507532.822       6767127.280
10 0 59321  12600.000000  0        607468.880      -1945500.824       6663300.644
10 0 59321  12660.000000  0        519013.108      -2374550.401       6531282.582
10 0 59321  12720.000000  0        424670.817      -2792827.204       6371635.468
10 0 59321  12780.000000  0        324940.476      -3198526.588       6185037.515
10 0 59321  12840.000000  0        220358.574      -3589901.262       5972279.951
10 0 59321  12900.000000  0        111496.863      -3965268.803       5734263.807
10 0 59321  12960.000000  0         -1040.590      -4323018.877       5471996.243
10 0 59321  13020.000000  0       -116620.521      -4661620.176       5186586.513
10 0 59321  13080.000000  0       -234583.811      -4979627.158       4879241.533
10 0 59321  13140.000000  0       -354249.035      -5275686.466       4551260.924
10 0 59321  13200.000000  0       -474916.166      -5548542.909       4204031.565
10 0 59321  13260.000000  0       -595870.415      -5797044.931       3839021.776
10 0 59321  13320.000000  0       -716386.191      -6020149.641       3457775.187
10 0 59321  13380.000000  0       -835731.153      -6216927.404       3061904.247
10 0 59321  13440.000000  0       -953170.310      -6386565.881       2653083.379
10 0 59321  13500.000000  0      -1067970.111      -6528373.517       2233041.906
10 0 59321  13560.000000  0      -1179402.648      -6641782.607       1803556.791
10 0 59321  13620.000000  0      -1286749.949      -6726351.807       1366444.966
10 0 59321  13680.000000  0      -1389308.172      -6781767.878        923555.447
10 0 59321  13740.000000  0      -1486391.686      -6807846.856        476761.373
10 0 59321  13800.000000  0      -1577337.108      -6804534.632         27951.932
10 0 59321  13860.000000  0      -1661507.222      -6771906.900       -420975.788
10 0 59321  13920.000000  0      -1738294.787      -6710168.505       -868124.954
10 0 59321  13980.000000  0      -1807126.192      -6619652.183      -1311607.130
10 0 59321  14040.000000  0      -1867464.958      -6500816.727      -1749550.364
10 0 59321  14100.000000  0      -1918815.061      -6354244.551      -2180107.194
10 0 59321  14160.000000  0      -1960724.052      -6180638.699      -2601462.527
10 0 59321  14220.000000  0      -1992785.950      -5980819.267      -3011841.370
10 0 59321  14280.000000  0      -2014643.886      -5755719.283      -3409516.311
10 0 59321  14340.000000  0      -2025992.495      -5506380.097      -3792814.761
99
